{
  "norad_id": 52622,
  "name": "STARLINK-4008",
  "history": [
    {
      "epoch": "2026-03-28T17:05:37.635360",
      "apogee_km": 540.6142387768114,
      "perigee_km": 538.8445102008891,
      "latitude_deg": -52.893259121069555,
      "longitude_deg": -129.4248496000655,
      "semi_major_axis_km": 6917.86637448885,
      "eccentricity": 0.00012791,
      "inclination_deg": 53.2172,
      "raan_deg": 198.7245,
      "arg_perigee_deg": 92.1401,
      "mean_anomaly_deg": 267.9737,
      "mean_motion_rev_day": 15.08844585
    }
  ]
}